{"type": "FeatureCollection", "features": [ {"type": "Feature", "properties": {"norad_id": 41774, "name": "SKYSAT-C3", "group": "resource", "lat": 75.16489199473885, "lon": -133.85420133731716, "alt_km": 425.25857883531444, "timestamp": "2025-12-10T23:33:12.484197+00:00", "meta": {"OBJECT_NAME": "SKYSAT-C3", "OBJECT_ID": "2016-058E", "EPOCH": "2025-12-10T01:20:10.885056", "MEAN_MOTION": 15.44244525, "ECCENTRICITY": 0.00015989, "INCLINATION": 96.93, "RA_OF_ASC_NODE": 17.9267, "ARG_OF_PERICENTER": 105.6106, "MEAN_ANOMALY": 254.5321, "EPHEMERIS_TYPE": 0, "CLASSIFICATION_TYPE": "U", "NORAD_CAT_ID": 41774, "ELEMENT_SET_NO": 999, "REV_AT_EPOCH": 51684, "BSTAR": 0.00053806643, "MEAN_MOTION_DOT": 0.0002469, "MEAN_MOTION_DDOT": 0}, "tle": {"line1": "1 41774U 16058E   25344.05568154  .00024690  00000+0  53807-3 0  9991", "line2": "2 41774  96.9300  17.9267 0001598 105.6106 254.5321 15.44244525516848"}}, "geometry": {"type": "Point", "coordinates": [-133.85420133731716, 75.16489199473885]}}, {"type": "Feature", "properties": {"norad_id": 41785, "name": "ALSAT 1B", "group": "resource", "lat": 57.31190429005637, "lon": -15.457132653226383, "alt_km": 644.1288412174508, "timestamp": "2025-12-10T23:33:12.484206+00:00", "meta": {"OBJECT_NAME": "ALSAT 1B", "OBJECT_ID": "2016-059C", "EPOCH": "2025-12-10T13:30:08.177760", "MEAN_MOTION": 14.72072314, "ECCENTRICITY": 0.00106335, "INCLINATION": 97.7813, "RA_OF_ASC_NODE": 356.4459, "ARG_OF_PERICENTER": 109.3535, "MEAN_ANOMALY": 250.8824, "EPHEMERIS_TYPE": 0, "CLASSIFICATION_TYPE": "U", "NORAD_CAT_ID": 41785, "ELEMENT_SET_NO": 999, "REV_AT_EPOCH": 49282, "BSTAR": 0.0001390066, "MEAN_MOTION_DOT": 8.27e-06, "MEAN_MOTION_DDOT": 0}, "tle": {"line1": "1 41785U 16059C   25344.56259465  .00000827  00000+0  13901-3 0  9999", "line2": "2 41785  97.7813 356.4459 0010633 109.3535 250.8824 14.72072314492822"}}, "geometry": {"type": "Point", "coordinates": [-15.457132653226383, 57.31190429005637]}}, {"type": "Feature", "properties": {"norad_id": 41787, "name": "PATHFINDER 1", "group": "resource", "lat": 12.486613261081253, "lon": 169.57921279209455, "alt_km": 667.4622435705733, "timestamp": "2025-12-10T23:33:12.484215+00:00", "meta": {"OBJECT_NAME": "PATHFINDER 1", "OBJECT_ID": "2016-059E", "EPOCH": "2025-12-10T11:20:24.891648", "MEAN_MOTION": 14.67314596, "ECCENTRICITY": 0.00300568, "INCLINATION": 97.8139, "RA_OF_ASC_NODE": 347.3513, "ARG_OF_PERICENTER": 88.0496, "MEAN_ANOMALY": 272.4151, "EPHEMERIS_TYPE": 0, "CLASSIFICATION_TYPE": "U", "NORAD_CAT_ID": 41787, "ELEMENT_SET_NO": 999, "REV_AT_EPOCH": 49203, "BSTAR": 0.00023091815, "MEAN_MOTION_DOT": 1.265e-05, "MEAN_MOTION_DDOT": 0}, "tle": {"line1": "1 41787U 16059E   25344.47251032  .00001265  00000+0  23092-3 0  9992", "line2": "2 41787  97.8139 347.3513 0030056  88.0496 272.4151 14.67314596492037"}}, "geometry": {"type": "Point", "coordinates": [169.57921279209455, 12.486613261081253]}}, {"type": "Feature", "properties": {"norad_id": 41790, "name": "SCATSAT 1", "group": "resource", "lat": 80.73423466368146, "lon": -19.77563808939909, "alt_km": 598.7738693225574, "timestamp": "2025-12-10T23:33:12.484224+00:00", "meta": {"OBJECT_NAME": "SCATSAT 1", "OBJECT_ID": "2016-059H", "EPOCH": "2025-12-10T15:02:56.368320", "MEAN_MOTION": 14.78925621, "ECCENTRICITY": 0.00561712, "INCLINATION": 98.1464, "RA_OF_ASC_NODE": 41.2708, "ARG_OF_PERICENTER": 134.6615, "MEAN_ANOMALY": 225.9194, "EPHEMERIS_TYPE": 0, "CLASSIFICATION_TYPE": "U", "NORAD_CAT_ID": 41790, "ELEMENT_SET_NO": 999, "REV_AT_EPOCH": 7371, "BSTAR": 0.00035682827, "MEAN_MOTION_DOT": 2.646e-05, "MEAN_MOTION_DDOT": 0}, "tle": {"line1": "1 41790U 16059H   25344.62704130  .00002646  00000+0  35683-3 0  9998", "line2": "2 41790  98.1464  41.2708 0056171 134.6615 225.9194 14.78925621 73718"}}, "geometry": {"type": "Point", "coordinates": [-19.77563808939909, 80.73423466368146]}}, {"type": "Feature", "properties": {"norad_id": 41875, "name": "GOKTURK 1A", "group": "resource", "lat": -81.3993931159393, "lon": -51.4337783085938, "alt_km": 692.4227123299679, "timestamp": "2025-12-10T23:33:12.484233+00:00", "meta": {"OBJECT_NAME": "GOKTURK 1A", "OBJECT_ID": "2016-073A", "EPOCH": "2025-12-10T15:44:36.182976", "MEAN_MOTION": 14.62774904, "ECCENTRICITY": 0.00012383, "INCLINATION": 98.1426, "RA_OF_ASC_NODE": 237.0487, "ARG_OF_PERICENTER": 79.6072, "MEAN_ANOMALY": 280.5269, "EPHEMERIS_TYPE": 0, "CLASSIFICATION_TYPE": "U", "NORAD_CAT_ID": 41875, "ELEMENT_SET_NO": 999, "REV_AT_EPOCH": 48126, "BSTAR": 0.00012274344, "MEAN_MOTION_DOT": 5.79e-06, "MEAN_MOTION_DDOT": 0}, "tle": {"line1": "1 41875U 16073A   25344.65597434  .00000579  00000+0  12274-3 0  9992", "line2": "2 41875  98.1426 237.0487 0001238  79.6072 280.5269 14.62774904481260"}}, "geometry": {"type": "Point", "coordinates": [-51.4337783085938, -81.3993931159393]}}, {"type": "Feature", "properties": {"norad_id": 41877, "name": "RESOURCESAT-2A", "group": "resource", "lat": -41.37337883922462, "lon": -132.97239908335305, "alt_km": 825.9065371807546, "timestamp": "2025-12-10T23:33:12.484242+00:00", "meta": {"OBJECT_NAME": "RESOURCESAT-2A", "OBJECT_ID": "2016-074A", "EPOCH": "2025-12-10T15:45:21.752064", "MEAN_MOTION": 14.21598837, "ECCENTRICITY": 0.0001119, "INCLINATION": 98.7754, "RA_OF_ASC_NODE": 54.5242, "ARG_OF_PERICENTER": 267.7972, "MEAN_ANOMALY": 92.3077, "EPHEMERIS_TYPE": 0, "CLASSIFICATION_TYPE": "U", "NORAD_CAT_ID": 41877, "ELEMENT_SET_NO": 999, "REV_AT_EPOCH": 46751, "BSTAR": 0.00018890199, "MEAN_MOTION_DOT": 3.7e-06, "MEAN_MOTION_DDOT": 0}, "tle": {"line1": "1 41877U 16074A   25344.65650176  .00000370  00000+0  18890-3 0  9997", "line2": "2 41877  98.7754  54.5242 0001119 267.7972  92.3077 14.21598837467512"}}, "geometry": {"type": "Point", "coordinates": [-132.97239908335305, -41.37337883922462]}}, {"type": "Feature", "properties": {"norad_id": 41948, "name": "CARTOSAT-2D", "group": "resource", "lat": -28.64883128828682, "lon": 46.59836249777087, "alt_km": 517.0121199532723, "timestamp": "2025-12-10T23:33:12.484251+00:00", "meta": {"OBJECT_NAME": "CARTOSAT-2D", "OBJECT_ID": "2017-008A", "EPOCH": "2025-12-10T14:11:45.727008", "MEAN_MOTION": 15.19224509, "ECCENTRICITY": 0.00043901, "INCLINATION": 97.4383, "RA_OF_ASC_NODE": 42.1214, "ARG_OF_PERICENTER": 168.3681, "MEAN_ANOMALY": 191.7656, "EPHEMERIS_TYPE": 0, "CLASSIFICATION_TYPE": "U", "NORAD_CAT_ID": 41948, "ELEMENT_SET_NO": 999, "REV_AT_EPOCH": 48894, "BSTAR": 0.00045959232, "MEAN_MOTION_DOT": 9.619e-05, "MEAN_MOTION_DDOT": 0}, "tle": {"line1": "1 41948U 17008A   25344.59150147  .00009619  00000+0  45959-3 0  9991", "line2": "2 41948  97.4383  42.1214 0004390 168.3681 191.7656 15.19224509488941"}}, "geometry": {"type": "Point", "coordinates": [46.59836249777087, -28.64883128828682]}}, {"type": "Feature", "properties": {"norad_id": 42063, "name": "SENTINEL-2B", "group": "resource", "lat": 46.98688060398858, "lon": -113.24490653556288, "alt_km": 784.2037372741797, "timestamp": "2025-12-10T23:33:12.484260+00:00", "meta": {"OBJECT_NAME": "SENTINEL-2B", "OBJECT_ID": "2017-013A", "EPOCH": "2025-12-10T14:32:45.589344", "MEAN_MOTION": 14.30815797, "ECCENTRICITY": 0.00011522, "INCLINATION": 98.5713, "RA_OF_ASC_NODE": 57.0818, "ARG_OF_PERICENTER": 92.3816, "MEAN_ANOMALY": 267.7499, "EPHEMERIS_TYPE": 0, "CLASSIFICATION_TYPE": "U", "NORAD_CAT_ID": 42063, "ELEMENT_SET_NO": 999, "REV_AT_EPOCH": 45767, "BSTAR": 0.00022242513, "MEAN_MOTION_DOT": 5.39e-06, "MEAN_MOTION_DDOT": 0}, "tle": {"line1": "1 42063U 17013A   25344.60608321  .00000539  00000+0  22243-3 0  9993", "line2": "2 42063  98.5713  57.0818 0001152  92.3816 267.7499 14.30815797457675"}}, "geometry": {"type": "Point", "coordinates": [-113.24490653556288, 46.98688060398858]}}, {"type": "Feature", "properties": {"norad_id": 42767, "name": "CARTOSAT-2E", "group": "resource", "lat": -61.36367520472499, "lon": -151.2848273890558, "alt_km": 513.6073032665136, "timestamp": "2025-12-10T23:33:12.484269+00:00", "meta": {"OBJECT_NAME": "CARTOSAT-2E", "OBJECT_ID": "2017-036C", "EPOCH": "2025-12-10T14:35:13.055136", "MEAN_MOTION": 15.19290458, "ECCENTRICITY": 0.00022546, "INCLINATION": 97.4552, "RA_OF_ASC_NODE": 42.222, "ARG_OF_PERICENTER": 246.2955, "MEAN_ANOMALY": 113.8043, "EPHEMERIS_TYPE": 0, "CLASSIFICATION_TYPE": "U", "NORAD_CAT_ID": 42767, "ELEMENT_SET_NO": 999, "REV_AT_EPOCH": 46951, "BSTAR": 0.00046855822, "MEAN_MOTION_DOT": 9.825e-05, "MEAN_MOTION_DDOT": 0}, "tle": {"line1": "1 42767U 17036C   25344.60778999  .00009825  00000+0  46856-3 0  9991", "line2": "2 42767  97.4552  42.2220 0002254 246.2955 113.8043 15.19290458469517"}}, "geometry": {"type": "Point", "coordinates": [-151.2848273890558, -61.36367520472499]}}, {"type": "Feature", "properties": {"norad_id": 42920, "name": "FORMOSAT-5", "group": "resource", "lat": 6.653733402307624, "lon": 58.36594020383016, "alt_km": 721.4623596682459, "timestamp": "2025-12-10T23:33:12.484278+00:00", "meta": {"OBJECT_NAME": "FORMOSAT-5", "OBJECT_ID": "2017-049A", "EPOCH": "2025-12-10T15:14:51.366336", "MEAN_MOTION": 14.51003535, "ECCENTRICITY": 0.00099609, "INCLINATION": 98.2454, "RA_OF_ASC_NODE": 58.996, "ARG_OF_PERICENTER": 302.6985, "MEAN_ANOMALY": 57.3248, "EPHEMERIS_TYPE": 0, "CLASSIFICATION_TYPE": "U", "NORAD_CAT_ID": 42920, "ELEMENT_SET_NO": 999, "REV_AT_EPOCH": 43933, "BSTAR": 0.00011551196, "MEAN_MOTION_DOT": 4.13e-06, "MEAN_MOTION_DDOT": 0}, "tle": {"line1": "1 42920U 17049A   25344.63531674  .00000413  00000+0  11551-3 0  9994", "line2": "2 42920  98.2454  58.9960 0009960 302.6985  57.3248 14.51003535439333"}}, "geometry": {"type": "Point", "coordinates": [58.36594020383016, 6.653733402307624]}}]}